GSAT-29                 
1 43698U 18089A   26177.96165146  .00000097  00000+0  00000+0 0  9991
2 43698   0.0838 262.7596 0003796 170.0173 243.5220  1.00270674 27882
ES'HAIL 2               
1 43700U 18090A   26177.95584477  .00000000  00000+0  00000+0 0  9992
2 43700   0.0262   7.5952 0002169 121.3916 155.9787  1.00270039 27772
GEO-KOMPSAT-2A          
1 43823U 18100A   26177.90491285 -.00000332  00000+0  00000+0 0  9998
2 43823   0.0440 147.2445 0002362 301.6575 280.1535  1.00272773 27728
GSAT-11                 
1 43824U 18100B   26177.82285373 -.00000066  00000+0  00000+0 0  9993
2 43824   0.0915 267.2335 0008201 184.6939 193.2546  1.00272256 27573
GSAT-7A                 
1 43864U 18105A   26177.86572287  .00000037  00000+0  00000+0 0  9996
2 43864   0.0444  97.7085 0002269 338.6006 213.1236  1.00274290 27541
COSMOS 2533             
1 43867U 18107A   26177.18047285 -.00000027  00000+0  00000+0 0  9991
2 43867   0.0468 106.0583 0000436  62.5547 240.6502  1.00268010 27537
TJS-3                   
1 43874U 18110A   26177.77507240 -.00000208  00000+0  00000+0 0  9991
2 43874   2.5693  80.3857 0002565  75.2531 186.4724  1.00269237 27512
ZHONGXING-2D            
1 43920U 19001A   26177.90525953 -.00000325  00000+0  00000+0 0  9999
2 43920   0.0063 208.7850 0001367 146.8321  15.3197  1.00273301 54171
HELLAS-SAT 4 & SGS-1    
1 44034U 19007A   26177.87128332  .00000164  00000+0  00000+0 0  9998
2 44034   0.0735 130.5498 0005695   6.8520 130.2625  1.00269902 27465
GSAT-31                 
1 44035U 19007B   26177.96026479  .00000137  00000+0  00000+0 0  9998
2 44035   0.0459 252.7287 0000797 131.6963 284.1993  1.00270861 27067
NUSANTARA SATU          
1 44048U 19009A   26177.90837954 -.00000223  00000+0  00000+0 0  9993
2 44048   0.0442 145.7108 0004773 332.4465 269.8864  1.00271349 26868
ZHONGXING-6C            
1 44067U 19012A   26177.90534619 -.00000324  00000+0  00000+0 0  9992
2 44067   0.0511  62.9532 0014910 348.3495 320.0484  1.00274156 26834
WGS 10 (USA 291)        
1 44071U 19014A   26177.86572287  .00000059  00000+0  00000+0 0  9991
2 44071   0.0189  25.5077 0000563  89.4265 172.0045  1.00267353 26712
TIANLIAN 2-01           
1 44076U 19017A   26177.82346039 -.00000096  00000+0  00000+0 0  9991
2 44076   0.5648  83.1352 0001274  38.6744 166.5882  1.00272074 26742
ARABSAT-6A              
1 44186U 19021A   26177.95679811  .00000165  00000+0  00000+0 0  9995
2 44186   0.0507  14.8431 0000981 348.6496 286.5405  1.00270356 26255
BEIDOU-3 IGSO-1         
1 44204U 19023A   26175.54148515 -.00000226  00000+0  00000+0 0  9992
2 44204  58.7053  37.5725 0025747 224.9564 323.4804  1.00289953  7288
BEIDOU-2 G8             
1 44231U 19027A   26177.97941821 -.00000238  00000+0  00000+0 0  9999
2 44231   1.6833  74.5238 0009896 284.9396  52.7041  1.00268816 26176
YAMAL 601               
1 44307U 19031A   26177.96043812  .00000132  00000+0  00000+0 0  9992
2 44307   0.0187  32.4082 0002800  57.9911 219.4384  1.00270078 26023
AT&T T-16               
1 44333U 19034A   26177.93084260 -.00000103  00000+0  00000+0 0  9992
2 44333   0.0174  61.8107 0000284 310.5486 136.9338  1.00266213 25736
EUTELSAT 7C             
1 44334U 19034B   26177.80963022  .00000060  00000+0  00000+0 0  9992
2 44334   0.0738 181.0885 0003503 262.0446 130.2736  1.00272841  6939
BEIDOU-3 IGSO-2         
1 44337U 19035A   26177.85739221 -.00000073  00000+0  00000+0 0  9998
2 44337  55.2494 158.7781 0039592 216.4480 327.7946  1.00263830 25763
COSMOS 2539             
1 44457U 19048A   26177.52532435  .00000092  00000+0  00000+0 0  9997
2 44457   0.0382  92.0799 0000667 356.4430  27.2503  1.00271363 25323
EDRS-C                  
1 44475U 19049A   26177.90768620  .00000000  00000+0  00000+0 0  9996
2 44475   0.0192  42.5966 0001320  66.4796 275.1773  1.00273685 25308
INTELSAT 39 (IS-39)     
1 44476U 19049B   26177.86572287  .00000045  00000+0  00000+0 0  9993
2 44476   0.0101  11.8316 0000917 340.6406 296.1206  1.00270990 25224
AMOS-17                 
1 44479U 19050A   26177.81162356  .00000121  00000+0  00000+0 0  9990
2 44479   0.0263 314.8469 0002213 168.6472 100.6069  1.00272232 25286
AEHF-5 (USA 292)        
1 44481U 19051A   26177.86295008 -.00000245  00000+0  00000+0 0  9998
2 44481   1.4453 336.9535 0065829 359.7508 342.0317  1.00271565 25353
EUTELSAT 5 WEST B       
1 44624U 19067A   26177.94982352 -.00000031  00000+0  00000+0 0  9991
2 44624   0.0623   6.0580 0003430  89.3010 156.6393  1.00271638 24538
MEV-1                   
1 44625U 19067B   26167.92963140 -.00000149  00000+0  00000+0 0  9993
2 44625   0.8740 268.9828 0002794 179.8034 307.2103  1.00269616 61744
TJS-4                   
1 44637U 19070A   26177.89607281 -.00000159  00000+0  00000+0 0  9999
2 44637   0.0423  85.9225 0004308 319.2763 275.9360  1.00273299 24632
TIBA-1                  
1 44800U 19080A   26177.95783811  .00000167  00000+0  00000+0 0  9991
2 44800   0.0503   3.9636 0002256  96.9234 194.5239  1.00268986 24156
INMARSAT GX5            
1 44801U 19080B   26177.81041022  .00000086  00000+0  00000+0 0  9998
2 44801   0.0421  27.6026 0002502  77.8900 112.1817  1.00272227  6885
JCSAT-18 (KACIFIC 1)    
1 44868U 19091A   26177.90924620 -.00000189  00000+0  00000+0 0  9992
2 44868   0.0435 233.5947 0000281 171.4561 347.3033  1.00274432 24106
