OBJECT_NAME,OBJECT_ID,EPOCH,MEAN_MOTION,ECCENTRICITY,INCLINATION,RA_OF_ASC_NODE,ARG_OF_PERICENTER,MEAN_ANOMALY,EPHEMERIS_TYPE,CLASSIFICATION_TYPE,NORAD_CAT_ID,ELEMENT_SET_NO,REV_AT_EPOCH,BSTAR,MEAN_MOTION_DOT,MEAN_MOTION_DDOT
GSAT-29,2018-089A,2026-06-26T23:04:46.686144,1.00270674,.00037963,0.0838,262.7596,170.0173,243.5220,0,U,43698,999,2788,0,.97E-6,0
ES'HAIL 2,2018-090A,2026-06-26T22:56:24.988128,1.00270039,.0002169,0.0262,7.5952,121.3916,155.9787,0,U,43700,999,2777,0,0,0
GEO-KOMPSAT-2A,2018-100A,2026-06-26T21:43:04.470240,1.00272773,.00023627,0.0440,147.2445,301.6575,280.1535,0,U,43823,999,2772,0,-.332E-5,0
GSAT-11,2018-100B,2026-06-26T19:44:54.562272,1.00272256,.00082013,0.0915,267.2335,184.6939,193.2546,0,U,43824,999,2757,0,-.66E-6,0
GSAT-7A,2018-105A,2026-06-26T20:46:38.455968,1.00274290,.00022693,0.0444,97.7085,338.6006,213.1236,0,U,43864,999,2754,0,.37E-6,0
COSMOS 2533,2018-107A,2026-06-26T04:19:52.854240,1.00268010,.0000436,0.0468,106.0583,62.5547,240.6502,0,U,43867,999,2753,0,-.27E-6,0
TJS-3,2018-110A,2026-06-26T18:36:06.255360,1.00269237,.0002565,2.5693,80.3857,75.2531,186.4724,0,U,43874,999,2751,0,-.208E-5,0
ZHONGXING-2D,2019-001A,2026-06-26T21:43:34.423392,1.00273301,.00013679,0.0063,208.7850,146.8321,15.3197,0,U,43920,999,5417,0,-.325E-5,0
HELLAS-SAT 4 & SGS-1,2019-007A,2026-06-26T20:54:38.878848,1.00269902,.00056953,0.0735,130.5498,6.8520,130.2625,0,U,44034,999,2746,0,.164E-5,0
GSAT-31,2019-007B,2026-06-26T23:02:46.877856,1.00270861,.00007979,0.0459,252.7287,131.6963,284.1993,0,U,44035,999,2706,0,.137E-5,0
NUSANTARA SATU,2019-009A,2026-06-26T21:48:03.992256,1.00271349,.00047737,0.0442,145.7108,332.4465,269.8864,0,U,44048,999,2686,0,-.223E-5,0
ZHONGXING-6C,2019-012A,2026-06-26T21:43:41.910816,1.00274156,.00149101,0.0511,62.9532,348.3495,320.0484,0,U,44067,999,2683,0,-.324E-5,0
WGS 10 (USA 291),2019-014A,2026-06-26T20:46:38.455968,1.00267353,.00005637,0.0189,25.5077,89.4265,172.0045,0,U,44071,999,2671,0,.59E-6,0
TIANLIAN 2-01,2019-017A,2026-06-26T19:45:46.977696,1.00272074,.00012749,0.5648,83.1352,38.6744,166.5882,0,U,44076,999,2674,0,-.96E-6,0
ARABSAT-6A,2019-021A,2026-06-26T22:57:47.356704,1.00270356,.00009816,0.0507,14.8431,348.6496,286.5405,0,U,44186,999,2625,0,.165E-5,0
BEIDOU-3 IGSO-1,2019-023A,2026-06-24T12:59:44.316960,1.00289953,.00257477,58.7053,37.5725,224.9564,323.4804,0,U,44204,999,728,0,-.226E-5,0
BEIDOU-2 G8,2019-027A,2026-06-26T23:30:21.733344,1.00268816,.00098968,1.6833,74.5238,284.9396,52.7041,0,U,44231,999,2617,0,-.238E-5,0
YAMAL 601,2019-031A,2026-06-26T23:03:01.853568,1.00270078,.00028003,0.0187,32.4082,57.9911,219.4384,0,U,44307,999,2602,0,.132E-5,0
AT&T T-16,2019-034A,2026-06-26T22:20:24.800640,1.00266213,.00002848,0.0174,61.8107,310.5486,136.9338,0,U,44333,999,2573,0,-.103E-5,0
EUTELSAT 7C,2019-034B,2026-06-26T19:25:52.051008,1.00272841,.00035035,0.0738,181.0885,262.0446,130.2736,0,U,44334,999,693,0,.6E-6,0
BEIDOU-3 IGSO-2,2019-035A,2026-06-26T20:34:38.686944,1.00263830,.00395927,55.2494,158.7781,216.4480,327.7946,0,U,44337,999,2576,0,-.73E-6,0
COSMOS 2539,2019-048A,2026-06-26T12:36:28.023840,1.00271363,.0000667,0.0382,92.0799,356.4430,27.2503,0,U,44457,999,2532,0,.92E-6,0
EDRS-C,2019-049A,2026-06-26T21:47:04.087680,1.00273685,.00013209,0.0192,42.5966,66.4796,275.1773,0,U,44475,999,2530,0,0,0
INTELSAT 39 (IS-39),2019-049B,2026-06-26T20:46:38.455968,1.00270990,.0000917,0.0101,11.8316,340.6406,296.1206,0,U,44476,999,2522,0,.45E-6,0
AMOS-17,2019-050A,2026-06-26T19:28:44.275584,1.00272232,.00022139,0.0263,314.8469,168.6472,100.6069,0,U,44479,999,2528,0,.121E-5,0
AEHF-5 (USA 292),2019-051A,2026-06-26T20:42:38.886912,1.00271565,.00658293,1.4453,336.9535,359.7508,342.0317,0,U,44481,999,2535,0,-.245E-5,0
EUTELSAT 5 WEST B,2019-067A,2026-06-26T22:47:44.752128,1.00271638,.000343,0.0623,6.0580,89.3010,156.6393,0,U,44624,999,2453,0,-.31E-6,0
MEV-1,2019-067B,2026-06-16T22:18:40.152960,1.00269616,.00027946,0.8740,268.9828,179.8034,307.2103,0,U,44625,999,6174,0,-.149E-5,0
TJS-4,2019-070A,2026-06-26T21:30:20.690784,1.00273299,.0004308,0.0423,85.9225,319.2763,275.9360,0,U,44637,999,2463,0,-.159E-5,0
TIBA-1,2019-080A,2026-06-26T22:59:17.212704,1.00268986,.00022562,0.0503,3.9636,96.9234,194.5239,0,U,44800,999,2415,0,.167E-5,0
INMARSAT GX5,2019-080B,2026-06-26T19:26:59.443008,1.00272227,.00025024,0.0421,27.6026,77.8900,112.1817,0,U,44801,999,688,0,.86E-6,0
JCSAT-18 (KACIFIC 1),2019-091A,2026-06-26T21:49:18.871680,1.00274432,.00002818,0.0435,233.5947,171.4561,347.3033,0,U,44868,999,2410,0,-.189E-5,0
